id;name;country;city;email;zip_code;street_address;created_at;updated_at
43;Abshire-Upton;Polska;Kraków;jacobs.camilla@grimes.com;31-833;53752 Travis Tunnel;2022-04-27 18:21:18;2022-04-27 18:21:18
44;Dach, Olson and Murphy;Polska;Kraków;mraz.kira@yahoo.com;31-873;88067 Thompson Groves Apt. 976;2022-04-27 18:21:19;2022-04-27 18:21:19
45;Kunde-Hodkiewicz;Polska;Kraków;russel.tomasa@yahoo.com;30-825;492 Von Squares;2022-04-27 18:21:19;2022-04-27 18:21:19
46;Gutmann Ltd;Polska;Kraków;savannah.runolfsson@fritsch.com;30-434;54717 Jared Haven Suite 891;2022-04-27 18:21:19;2022-04-27 18:21:19
47;Cummerata-Borer;Polska;Kraków;green.mikel@pfannerstill.com;31-778;7422 Rylee Inlet Apt. 101;2022-04-27 18:21:19;2022-04-27 18:21:19
48;Hand, Ernser and Fay;Polska;Kraków;senger.laurianne@rice.biz;30-779;932 Amalia Shore;2022-04-27 18:21:19;2022-04-27 18:21:19
49;Considine and Sons;Polska;Kraków;marisol65@yahoo.com;31-851;909 Ebony Points;2022-04-27 18:21:19;2022-04-27 18:21:19
50;Jacobi Inc;Polska;Kraków;nosinski@yahoo.com;31-802;4025 Trantow Stream;2022-04-27 18:21:19;2022-04-27 18:21:19
51;Cormier Inc;Polska;Kraków;kilback.lambert@gmail.com;30-779;4114 Wava Path Apt. 874;2022-04-27 18:21:19;2022-04-27 18:21:19
52;Rutherford Ltd;Polska;Kraków;kip21@hane.biz;31-140;99511 Luettgen Port;2022-04-27 18:21:19;2022-04-27 18:21:19
53;Ullrich, Daniel and Cruickshank;Polska;Kraków;wmurray@kling.com;31-263;3499 Gutkowski Underpass Suite 909;2022-04-27 18:21:19;2022-04-27 18:21:19
54;Runolfsdottir-Kirlin;Polska;Kraków;judson.bartoletti@hotmail.com;31-951;44464 Kenyatta Stream;2022-04-27 18:21:19;2022-04-27 18:21:19
55;O'Kon-Prosacco;Polska;Kraków;ritchie.trinity@yahoo.com;31-348;91282 Lexi Junction Apt. 157;2022-04-27 18:21:19;2022-04-27 18:21:19
56;Fisher Ltd;Polska;Kraków;hackett.whitney@kuhn.com;31-253;4719 Roselyn Wells;2022-04-27 18:21:19;2022-04-27 18:21:19
57;Hill, Simonis and Hand;Polska;Kraków;willard22@mueller.net;30-392;5903 Tod Square Suite 987;2022-04-27 18:21:19;2022-04-27 18:21:19
58;Lang-Simonis;Polska;Kraków;nklein@simonis.biz;30-491;10377 Gennaro Heights;2022-04-27 18:21:19;2022-04-27 18:21:19
59;Borer, Schmitt and VonRueden;Polska;Kraków;ritchie.barbara@little.com;31-081;75902 Kohler Crescent Apt. 748;2022-04-27 18:21:19;2022-04-27 18:21:19
60;Lubowitz, Grady and Bogisich;Polska;Kraków;cmayert@price.com;30-904;6363 Gorczany Rapids;2022-04-27 18:21:19;2022-04-27 18:21:19
61;Kulas Inc;Polska;Kraków;parisian.caterina@bernhard.com;31-592;26299 Kunze Crossroad Apt. 930;2022-04-27 18:21:19;2022-04-27 18:21:19
62;Parker LLC;Polska;Kraków;reginald.stark@kling.com;30-366;1930 Hartmann Gateway Suite 171;2022-04-27 18:21:19;2022-04-27 18:21:19
