name,country,city,email,zip_code,street_address,created_at,updated_at
Walter PLC,Polska,Kraków,helmer13@gmail.com,31-356,567 Ulises Summit,2022-04-12 18:17:46,2022-04-12 18:17:46
Moen-Predovic,Polska,Kraków,samantha80@hessel.org,31-987,430 Cummings Lakes,2022-04-12 18:17:46,2022-04-12 18:17:46
Morar, Koch and Grant,Polska,Kraków,ubartoletti@yahoo.com,30-459,9555 Parisian Loaf Apt. 189,2022-04-12 18:17:46,2022-04-12 18:17:46
Hettinger LLC,Polska,Kraków,lolita33@hotmail.com,30-420,23378 Heller Mountains Suite 771,2022-04-12 18:17:46,2022-04-12 18:17:46
Fay-Crooks,Polska,Kraków,grempel@graham.org,30-618,82326 Maia Neck Suite 054,2022-04-12 18:17:46,2022-04-12 18:17:46
Crist, Bernhard and Swaniawski,Polska,Kraków,katelynn.west@mohr.com,31-477,95360 Jayce Pike,2022-04-12 18:17:46,2022-04-12 18:17:46
Lehner, Jakubowski and Hartmann,Polska,Kraków,marquis49@aufderhar.biz,31-487,34937 Barton Run,2022-04-12 18:17:46,2022-04-12 18:17:46
Schowalter-Kemmer,Polska,Kraków,nikolas.mraz@rolfson.com,31-527,67764 Beatty Ports,2022-04-12 18:17:46,2022-04-12 18:17:46
Schowalter, Strosin and Yundt,Polska,Kraków,kennedy11@monahan.com,31-663,6646 Nicklaus Inlet,2022-04-12 18:17:46,2022-04-12 18:17:46
Wunsch, Oberbrunner and Willms,Polska,Kraków,joseph07@hotmail.com,31-747,71917 Halvorson Village Apt. 891,2022-04-12 18:17:46,2022-04-12 18:17:46
Rempel-Balistreri,Polska,Kraków,marks.jonatan@ratke.com,30-709,1331 Gus Islands Suite 149,2022-04-12 18:17:46,2022-04-12 18:17:46
Schinner, Muller and Leannon,Polska,Kraków,eula63@schulist.com,30-190,308 Hessel Walks,2022-04-12 18:17:46,2022-04-12 18:17:46
Leannon-Gusikowski,Polska,Kraków,dubuque.rachelle@russel.info,31-625,588 Walsh Village Apt. 485,2022-04-12 18:17:46,2022-04-12 18:17:46
Maggio-Jacobson,Polska,Kraków,qemmerich@hotmail.com,30-720,1272 Barrows Tunnel Apt. 672,2022-04-12 18:17:46,2022-04-12 18:17:46
Hickle, Predovic and Haley,Polska,Kraków,leonor17@gmail.com,31-550,675 Lesch Green Suite 168,2022-04-12 18:17:46,2022-04-12 18:17:46
Kuphal-Ledner,Polska,Kraków,batz.gerald@gmail.com,30-162,5232 Annabelle Mount Suite 218,2022-04-12 18:17:46,2022-04-12 18:17:46
Rau-Windler,Polska,Kraków,stanton.hilma@dooley.info,31-082,1703 Carroll Fords Apt. 282,2022-04-12 18:17:46,2022-04-12 18:17:46
Renner-Runolfsdottir,Polska,Kraków,kemmer.sally@durgan.info,31-384,577 Kreiger Ridges,2022-04-12 18:17:46,2022-04-12 18:17:46
Ankunding-Mertz,Polska,Kraków,justice.conn@hotmail.com,31-632,446 Jaskolski Extension Apt. 249,2022-04-12 18:17:46,2022-04-12 18:17:46
Wiegand, Kiehn and Hettinger,Polska,Kraków,daryl.waters@gmail.com,30-748,3361 Marks Roads,2022-04-12 18:17:46,2022-04-12 18:17:46
